CCSDS_OMM_VERS = 2.0
CREATION_DATE  = 
ORIGINATOR     = 

OBJECT_NAME    = STARLINK-36439
OBJECT_ID      = 2026-020H
CENTER_NAME    = EARTH
REF_FRAME      = TEME
TIME_SYSTEM    = UTC
MEAN_ELEMENT_THEORY = SGP/SGP4

EPOCH          = 2026-02-21T13:45:00.440064
MEAN_MOTION    = 15.76410406
ECCENTRICITY   = .0001719
INCLINATION    = 42.9985
RA_OF_ASC_NODE = 240.0151
ARG_OF_PERICENTER = 268.4980
MEAN_ANOMALY   = 91.5693

EPHEMERIS_TYPE = 0
CLASSIFICATION_TYPE = U
NORAD_CAT_ID   = 67624
ELEMENT_SET_NO = 999
REV_AT_EPOCH   = 354
BSTAR          = .17131E-2
MEAN_MOTION_DOT = .28875E-2
MEAN_MOTION_DDOT = 0

CCSDS_OMM_VERS = 2.0
CREATION_DATE  = 
ORIGINATOR     = 

OBJECT_NAME    = STARLINK-36438
OBJECT_ID      = 2026-020J
CENTER_NAME    = EARTH
REF_FRAME      = TEME
TIME_SYSTEM    = UTC
MEAN_ELEMENT_THEORY = SGP/SGP4

EPOCH          = 2026-02-21T13:54:28.577088
MEAN_MOTION    = 15.76330005
ECCENTRICITY   = .0001747
INCLINATION    = 42.9985
RA_OF_ASC_NODE = 240.0701
ARG_OF_PERICENTER = 336.0922
MEAN_ANOMALY   = 23.9867

EPHEMERIS_TYPE = 0
CLASSIFICATION_TYPE = U
NORAD_CAT_ID   = 67625
ELEMENT_SET_NO = 999
REV_AT_EPOCH   = 354
BSTAR          = .23987E-2
MEAN_MOTION_DOT = .408916E-2
MEAN_MOTION_DDOT = 0

CCSDS_OMM_VERS = 2.0
CREATION_DATE  = 
ORIGINATOR     = 

OBJECT_NAME    = STARLINK-36436
OBJECT_ID      = 2026-020K
CENTER_NAME    = EARTH
REF_FRAME      = TEME
TIME_SYSTEM    = UTC
MEAN_ELEMENT_THEORY = SGP/SGP4

EPOCH          = 2026-02-21T20:00:01.999008
MEAN_MOTION    = 15.76286929
ECCENTRICITY   = .0001662
INCLINATION    = 42.9992
RA_OF_ASC_NODE = 238.1255
ARG_OF_PERICENTER = 259.1766
MEAN_ANOMALY   = 265.0328

EPHEMERIS_TYPE = 0
CLASSIFICATION_TYPE = U
NORAD_CAT_ID   = 67626
ELEMENT_SET_NO = 999
REV_AT_EPOCH   = 484
BSTAR          = .62523E-3
MEAN_MOTION_DOT = .1022E-2
MEAN_MOTION_DDOT = 0

CCSDS_OMM_VERS = 2.0
CREATION_DATE  = 
ORIGINATOR     = 

OBJECT_NAME    = STARLINK-36502
OBJECT_ID      = 2026-020L
CENTER_NAME    = EARTH
REF_FRAME      = TEME
TIME_SYSTEM    = UTC
MEAN_ELEMENT_THEORY = SGP/SGP4

EPOCH          = 2026-02-21T20:00:01.999008
MEAN_MOTION    = 15.79225790
ECCENTRICITY   = .000124
INCLINATION    = 42.9993
RA_OF_ASC_NODE = 237.9791
ARG_OF_PERICENTER = 275.9617
MEAN_ANOMALY   = 306.9142

EPHEMERIS_TYPE = 0
CLASSIFICATION_TYPE = U
NORAD_CAT_ID   = 67627
ELEMENT_SET_NO = 999
REV_AT_EPOCH   = 484
BSTAR          = -.11872E-1
MEAN_MOTION_DOT = -.1913735E-1
MEAN_MOTION_DDOT = 0

CCSDS_OMM_VERS = 2.0
CREATION_DATE  = 
ORIGINATOR     = 

OBJECT_NAME    = STARLINK-36532
OBJECT_ID      = 2026-020M
CENTER_NAME    = EARTH
REF_FRAME      = TEME
TIME_SYSTEM    = UTC
MEAN_ELEMENT_THEORY = SGP/SGP4

EPOCH          = 2026-02-21T00:00:02.000160
MEAN_MOTION    = 15.82335971
ECCENTRICITY   = .00017538
INCLINATION    = 42.9990
RA_OF_ASC_NODE = 243.0484
ARG_OF_PERICENTER = 255.9501
MEAN_ANOMALY   = 269.5962

EPHEMERIS_TYPE = 0
CLASSIFICATION_TYPE = U
NORAD_CAT_ID   = 67628
ELEMENT_SET_NO = 999
REV_AT_EPOCH   = 470
BSTAR          = -.56006967E-2
MEAN_MOTION_DOT = -.1059876E-1
MEAN_MOTION_DDOT = 0

CCSDS_OMM_VERS = 2.0
CREATION_DATE  = 
ORIGINATOR     = 

OBJECT_NAME    = STARLINK-36367
OBJECT_ID      = 2026-020N
CENTER_NAME    = EARTH
REF_FRAME      = TEME
TIME_SYSTEM    = UTC
MEAN_ELEMENT_THEORY = SGP/SGP4

EPOCH          = 2026-02-21T13:29:14.652096
MEAN_MOTION    = 15.76645475
ECCENTRICITY   = .0002655
INCLINATION    = 42.9981
RA_OF_ASC_NODE = 239.9262
ARG_OF_PERICENTER = 262.3537
MEAN_ANOMALY   = 97.7031

EPHEMERIS_TYPE = 0
CLASSIFICATION_TYPE = U
NORAD_CAT_ID   = 67629
ELEMENT_SET_NO = 999
REV_AT_EPOCH   = 354
BSTAR          = .16431E-2
MEAN_MOTION_DOT = .279525E-2
MEAN_MOTION_DDOT = 0

CCSDS_OMM_VERS = 2.0
CREATION_DATE  = 
ORIGINATOR     = 

OBJECT_NAME    = STARLINK-36416
OBJECT_ID      = 2026-020P
CENTER_NAME    = EARTH
REF_FRAME      = TEME
TIME_SYSTEM    = UTC
MEAN_ELEMENT_THEORY = SGP/SGP4

EPOCH          = 2026-02-20T22:38:56.512032
MEAN_MOTION    = 15.76402842
ECCENTRICITY   = .0001881
INCLINATION    = 42.9979
RA_OF_ASC_NODE = 243.9029
ARG_OF_PERICENTER = 266.3830
MEAN_ANOMALY   = 93.6824

EPHEMERIS_TYPE = 0
CLASSIFICATION_TYPE = U
NORAD_CAT_ID   = 67630
ELEMENT_SET_NO = 999
REV_AT_EPOCH   = 344
BSTAR          = .18603E-2
MEAN_MOTION_DOT = .314457E-2
MEAN_MOTION_DDOT = 0

CCSDS_OMM_VERS = 2.0
CREATION_DATE  = 
ORIGINATOR     = 

OBJECT_NAME    = STARLINK-36527
OBJECT_ID      = 2026-020Q
CENTER_NAME    = EARTH
REF_FRAME      = TEME
TIME_SYSTEM    = UTC
MEAN_ELEMENT_THEORY = SGP/SGP4

EPOCH          = 2026-02-21T15:56:41.417664
MEAN_MOTION    = 15.82023645
ECCENTRICITY   = .0004312
INCLINATION    = 42.9986
RA_OF_ASC_NODE = 238.9591
ARG_OF_PERICENTER = 294.6630
MEAN_ANOMALY   = 65.3792

EPHEMERIS_TYPE = 0
CLASSIFICATION_TYPE = U
NORAD_CAT_ID   = 67631
ELEMENT_SET_NO = 999
REV_AT_EPOCH   = 356
BSTAR          = .16038E-2
MEAN_MOTION_DOT = .351448E-2
MEAN_MOTION_DDOT = 0

CCSDS_OMM_VERS = 2.0
CREATION_DATE  = 
ORIGINATOR     = 

OBJECT_NAME    = STARLINK-36633
OBJECT_ID      = 2026-020R
CENTER_NAME    = EARTH
REF_FRAME      = TEME
TIME_SYSTEM    = UTC
MEAN_ELEMENT_THEORY = SGP/SGP4

EPOCH          = 2026-02-21T20:00:01.999008
MEAN_MOTION    = 15.76273264
ECCENTRICITY   = .0001694
INCLINATION    = 42.9994
RA_OF_ASC_NODE = 238.0632
ARG_OF_PERICENTER = 258.3822
MEAN_ANOMALY   = 290.7144

EPHEMERIS_TYPE = 0
CLASSIFICATION_TYPE = U
NORAD_CAT_ID   = 67632
ELEMENT_SET_NO = 999
REV_AT_EPOCH   = 484
BSTAR          = .74515E-3
MEAN_MOTION_DOT = .122111E-2
MEAN_MOTION_DDOT = 0

CCSDS_OMM_VERS = 2.0
CREATION_DATE  = 
ORIGINATOR     = 

OBJECT_NAME    = STARLINK-36637
OBJECT_ID      = 2026-020S
CENTER_NAME    = EARTH
REF_FRAME      = TEME
TIME_SYSTEM    = UTC
MEAN_ELEMENT_THEORY = SGP/SGP4

EPOCH          = 2026-02-21T13:48:09.717408
MEAN_MOTION    = 15.76420586
ECCENTRICITY   = .0002025
INCLINATION    = 42.9980
RA_OF_ASC_NODE = 240.0351
ARG_OF_PERICENTER = 297.4283
MEAN_ANOMALY   = 62.6381

EPHEMERIS_TYPE = 0
CLASSIFICATION_TYPE = U
NORAD_CAT_ID   = 67633
ELEMENT_SET_NO = 999
REV_AT_EPOCH   = 354
BSTAR          = .21215E-2
MEAN_MOTION_DOT = .360966E-2
MEAN_MOTION_DDOT = 0

CCSDS_OMM_VERS = 2.0
CREATION_DATE  = 
ORIGINATOR     = 

OBJECT_NAME    = STARLINK-36617
OBJECT_ID      = 2026-020T
CENTER_NAME    = EARTH
REF_FRAME      = TEME
TIME_SYSTEM    = UTC
MEAN_ELEMENT_THEORY = SGP/SGP4

EPOCH          = 2026-02-21T15:53:47.733792
MEAN_MOTION    = 15.81877180
ECCENTRICITY   = .0007515
INCLINATION    = 42.9998
RA_OF_ASC_NODE = 238.9420
ARG_OF_PERICENTER = 299.3204
MEAN_ANOMALY   = 60.6916

EPHEMERIS_TYPE = 0
CLASSIFICATION_TYPE = U
NORAD_CAT_ID   = 67634
ELEMENT_SET_NO = 999
REV_AT_EPOCH   = 356
BSTAR          = .16589E-2
MEAN_MOTION_DOT = .361859E-2
MEAN_MOTION_DDOT = 0

CCSDS_OMM_VERS = 2.0
CREATION_DATE  = 
ORIGINATOR     = 

OBJECT_NAME    = STARLINK-36627
OBJECT_ID      = 2026-020U
CENTER_NAME    = EARTH
REF_FRAME      = TEME
TIME_SYSTEM    = UTC
MEAN_ELEMENT_THEORY = SGP/SGP4

EPOCH          = 2026-02-21T13:38:42.291456
MEAN_MOTION    = 15.76594996
ECCENTRICITY   = .000268
INCLINATION    = 42.9981
RA_OF_ASC_NODE = 239.9795
ARG_OF_PERICENTER = 249.1051
MEAN_ANOMALY   = 110.9532

EPHEMERIS_TYPE = 0
CLASSIFICATION_TYPE = U
NORAD_CAT_ID   = 67635
ELEMENT_SET_NO = 999
REV_AT_EPOCH   = 354
BSTAR          = .20395E-2
MEAN_MOTION_DOT = .349191E-2
MEAN_MOTION_DDOT = 0

