STARLINK-36439          
1 67624U 26020H   26052.57292176  .00288750  00000+0  17131-2 0  9993
2 67624  42.9985 240.0151 0001719 268.4980  91.5693 15.76410406  3541
STARLINK-36438          
1 67625U 26020J   26052.57949742  .00408916  00000+0  23987-2 0  9996
2 67625  42.9985 240.0701 0001747 336.0922  23.9867 15.76330005  3540
STARLINK-36436          
1 67626U 26020K   26052.83335647  .00102200  00000+0  62523-3 0  9996
2 67626  42.9992 238.1255 0001662 259.1766 265.0328 15.76286929  4848
STARLINK-36502          
1 67627U 26020L   26052.83335647 -.01913735  00000+0 -11872-1 0  9992
2 67627  42.9993 237.9791 0001240 275.9617 306.9142 15.79225790  4846
STARLINK-36532          
1 67628U 26020M   26052.00002315 -.01059876  00000+0 -56007-2 0  9992
2 67628  42.9990 243.0484 0001753 255.9501 269.5962 15.82335971  4706
STARLINK-36367          
1 67629U 26020N   26052.56197514  .00279525  00000+0  16431-2 0  9999
2 67629  42.9981 239.9262 0002655 262.3537  97.7031 15.76645475  3543
STARLINK-36416          
1 67630U 26020P   26051.94370963  .00314457  00000+0  18603-2 0  9990
2 67630  42.9979 243.9029 0001881 266.3830  93.6824 15.76402842  3441
STARLINK-36527          
1 67631U 26020Q   26052.66436826  .00351448  00000+0  16038-2 0  9993
2 67631  42.9986 238.9591 0004312 294.6630  65.3792 15.82023645  3562
STARLINK-36633          
1 67632U 26020R   26052.83335647  .00122111  00000+0  74515-3 0  9990
2 67632  42.9994 238.0632 0001694 258.3822 290.7144 15.76273264  4843
STARLINK-36637          
1 67633U 26020S   26052.57511247  .00360966  00000+0  21215-2 0  9994
2 67633  42.9980 240.0351 0002025 297.4283  62.6381 15.76420586  3540
STARLINK-36617          
1 67634U 26020T   26052.66235803  .00361859  00000+0  16589-2 0  9996
2 67634  42.9998 238.9420 0007515 299.3204  60.6916 15.81877180  3562
STARLINK-36627          
1 67635U 26020U   26052.56854504  .00349191  00000+0  20395-2 0  9996
2 67635  42.9981 239.9795 0002680 249.1051 110.9532 15.76594996  3548
